[{"OBJECT_NAME":"STARLINK-32958","OBJECT_ID":"2025-075R","EPOCH":"2026-03-09T22:13:13.515168","MEAN_MOTION":15.2759075,"ECCENTRICITY":4.734e-5,"INCLINATION":42.993,"RA_OF_ASC_NODE":269.2857,"ARG_OF_PERICENTER":184.2801,"MEAN_ANOMALY":175.8047,"EPHEMERIS_TYPE":0,"CLASSIFICATION_TYPE":"U","NORAD_CAT_ID":63563,"ELEMENT_SET_NO":999,"REV_AT_EPOCH":5196,"BSTAR":0.0010360954,"MEAN_MOTION_DOT":0.00028368,"MEAN_MOTION_DDOT":0},{"OBJECT_NAME":"SIMSAT 2","OBJECT_ID":"2000-026B","EPOCH":"2026-03-09T20:25:01.673184","MEAN_MOTION":15.29036787,"ECCENTRICITY":0.00037035,"INCLINATION":86.3514,"RA_OF_ASC_NODE":176.4271,"ARG_OF_PERICENTER":287.9875,"MEAN_ANOMALY":72.0969,"EPHEMERIS_TYPE":0,"CLASSIFICATION_TYPE":"U","NORAD_CAT_ID":26366,"ELEMENT_SET_NO":999,"REV_AT_EPOCH":42803,"BSTAR":0.00013465771,"MEAN_MOTION_DOT":3.833e-5,"MEAN_MOTION_DDOT":0}]
